[{"OBJECT_NAME":"OBJECT B","OBJECT_ID":"2024-205B","EPOCH":"2026-03-09T23:46:05.115936","MEAN_MOTION":15.28158697,"ECCENTRICITY":0.00105957,"INCLINATION":97.4192,"RA_OF_ASC_NODE":146.9311,"ARG_OF_PERICENTER":34.0947,"MEAN_ANOMALY":326.0972,"EPHEMERIS_TYPE":0,"CLASSIFICATION_TYPE":"U","NORAD_CAT_ID":61895,"ELEMENT_SET_NO":999,"REV_AT_EPOCH":7352,"BSTAR":0.00054154807,"MEAN_MOTION_DOT":0.00014827,"MEAN_MOTION_DDOT":0},{"OBJECT_NAME":"ZK-1A R\/B","OBJECT_ID":"2025-256C","EPOCH":"2026-03-09T22:50:51.933408","MEAN_MOTION":15.05195406,"ECCENTRICITY":0.02187008,"INCLINATION":98.3035,"RA_OF_ASC_NODE":148.2706,"ARG_OF_PERICENTER":314.6999,"MEAN_ANOMALY":43.659,"EPHEMERIS_TYPE":0,"CLASSIFICATION_TYPE":"U","NORAD_CAT_ID":66411,"ELEMENT_SET_NO":999,"REV_AT_EPOCH":1815,"BSTAR":0.00055908382,"MEAN_MOTION_DOT":0.00013638,"MEAN_MOTION_DDOT":0}]
